Station name not available
Aug 22, 2017 - 10:30 PM EDT / 2017.08.23 0230 UTC
Wind: from the W (270 degrees) at 10 MPH (9 KT):0
Visibility: 3 mile(s):0
Sky conditions: mostly cloudy
Weather: haze
Temperature: 75 F (24 C)
Dew Point: 73 F (23 C)
Relative Humidity: 94%
Pressure (altimeter): 29.77 in. Hg (1008 hPa)
ob: AABP 230230Z 27009KT 5000 HZ SCT010 SCT020 BKN100 24/23 Q1008 NOSIG
cycle: 2